[{"OBJECT_NAME":"STARLINK-3844","OBJECT_ID":"2022-053BB","EPOCH":"2026-03-09T09:55:16.954752","MEAN_MOTION":15.08831189,"ECCENTRICITY":0.00012114,"INCLINATION":53.2172,"RA_OF_ASC_NODE":135.3619,"ARG_OF_PERICENTER":66.2203,"MEAN_ANOMALY":293.8916,"EPHEMERIS_TYPE":0,"CLASSIFICATION_TYPE":"U","NORAD_CAT_ID":52705,"ELEMENT_SET_NO":999,"REV_AT_EPOCH":21127,"BSTAR":3.2019226e-5,"MEAN_MOTION_DOT":2.22e-6,"MEAN_MOTION_DDOT":0},{"OBJECT_NAME":"LEMUR-2-SIERRINI","OBJECT_ID":"2024-149DR","EPOCH":"2026-03-09T19:24:50.445216","MEAN_MOTION":15.08682764,"ECCENTRICITY":0.00065795,"INCLINATION":97.6873,"RA_OF_ASC_NODE":151.1225,"ARG_OF_PERICENTER":147.8458,"MEAN_ANOMALY":212.3173,"EPHEMERIS_TYPE":0,"CLASSIFICATION_TYPE":"U","NORAD_CAT_ID":60579,"ELEMENT_SET_NO":999,"REV_AT_EPOCH":8546,"BSTAR":0.00092040134,"MEAN_MOTION_DOT":0.00014386,"MEAN_MOTION_DDOT":0}]
